ONEWEB-0171             
1 48070U 21025AE  24261.94506806 -.00000019  00000+0 -86375-4 0  9996
2 48070  87.8854  87.0453 0001770  91.5660 268.5672 13.13470172169966
ONEWEB-0174             
1 48072U 21025AG  24262.05934260  .00000255  00000+0  66296-3 0  9999
2 48072  87.8854  87.0031 0001662  82.8654 277.2664 13.13468985170190
ONEWEB-0175             
1 48073U 21025AH  24261.93555106 -.00000161  00000+0 -47662-3 0  9998
2 48073  87.8846  87.0106 0001794 100.3209 259.8122 13.13469392169830
ONEWEB-0177             
1 48074U 21025AJ  24261.94824276  .00000143  00000+0  35784-3 0  9997
2 48074  87.8847  87.0175 0002079  83.0555 277.0810 13.13469739170020
ONEWEB-0178             
1 48075U 21025AK  24261.50877363  .00000344  00000+0  90585-3 0  9998
2 48075  87.8856  87.1297 0001877  85.0683 275.0660 13.13468518170010
ONEWEB-0108             
1 48076U 21025AL  24262.07838362 -.00000154  00000+0 -45611-3 0  9999
2 48076  87.8850  86.9881 0001479  83.8537 276.2760 13.13469157170028
